#dP2024  6 14  6  0  0.00000000      96 __u+U IGS20 EXT  IAC
## 2318 453600.00000000   900.00000000 60475 0.2500000000000
+   54   G02G03G04G05G06G07G08G09G10G11G12G13G14G15G16G17G18
+        G19G20G21G22G23G24G25G26G27G28G29G30G31G32R01R02R03
+        R04R05R07R08R09R11R12R13R14R15R16R17R18R19R20R21R22
+        R24R25R26  0  0  0  0  0  0  0  0  0  0  0  0  0  0
+          0  0  0  0  0  0  0  0  0  0  0  0  0  0  0  0  0
++         9  8  9  9  9  8  9  9  8  9  8  8 10  8  9 10  9
++         9  8  9  9  8  9  8  8  9  9  8  9  9  9  9  9  9
++         9  9  8  9  9  8  9  9  9  9  9  9  9  9  8  8  9
++         9  9  9  0  0  0  0  0  0  0  0  0  0  0  0  0  0
++         0  0  0  0  0  0  0  0  0  0  0  0  0  0  0  0  0
%c M  cc GPS ccc cccc cccc cccc cccc ccccc ccccc ccccc ccccc
%c cc cc ccc ccc cccc cccc cccc cccc ccccc ccccc ccccc ccccc
%f  0.0000000  0.000000000  0.00000000000  0.000000000000000
%f  0.0000000  0.000000000  0.00000000000  0.000000000000000
%i    0    0    0    0      0      0      0      0         0
%i    0    0    0    0      0      0      0      0         0
/* IAC                                ULTRA-RAPID PREDICTION
/* S/V CLOCKS ARE ALIGNED TO GNSS TIME                      
/* G:C1WC2W R:C1PC2P E:C1XC5X C:C2IC6I J:C1CC2S             
/* PCV:IGS20_2317 OL/AL:FES2004  NONE     YN ORB:CoN CLK:CoN
*  2024 06 14 10 30  0.00000000
PG02  14638.554401 -20897.506981   7270.250690   -417.942633
PG03  14831.155397 -12461.128829 -18274.413759    412.889021
PG04   6149.155851 -16732.563625 -19628.831296    382.924397
PG05 -25476.581974   5453.116914   5210.734202   -176.278489
PG06 -10409.100422 -10784.454469 -21854.490887    219.197671
PG07   2809.974629 -23444.694295  12199.188312    -93.439856
PG08  13850.161050  -6788.939171  21530.501406    229.114719
PG09  -5136.942883 -23225.399070 -11844.646063    234.290539
PG10  17661.040878  10852.024557  16999.381965    -42.646809
PG11 -17605.090020   2864.476431 -19640.010551   -685.169911
PG12 -17495.372061  11038.831397 -16910.290112   -513.990681
PG13 -16509.045317  -2992.563070  20438.024628    657.831180
PG14 -13817.408687 -13312.171177  18491.212659    425.126125
PG15 -12920.133609   8711.556309  21016.762584    170.015315
PG16  26672.585595      5.220280   2306.777715   -264.625105
PG17 -12935.510548 -23061.944738   -833.915407    694.709030
PG18  -3304.876327  23082.158489  12536.489981   -624.745054
PG19 -16623.913719 -18348.501535 -10318.361828    496.255420
PG20 -25936.596851   1714.575266  -5009.521355    373.852059
PG21  16335.949297 -16672.608453  12067.615607    115.535984
PG22 -20166.079176 -10828.979871  13637.987317    -27.123104
PG23   5251.460602  14348.479172  21771.187952    250.018164
PG24 -14866.178006  20098.767414   7912.156923   -477.607834
PG25  -6804.370968  15265.789117 -20927.088852    497.319579
PG26  23876.810504   5541.177183 -10828.117024    137.165716
PG27  18403.797288   5480.714450  18237.617753    -28.162143
PG28   9694.335264  13235.272401 -20897.675601   -288.302945
PG29    716.220092  22474.848673 -14089.880976   -594.272839
PG30  -6141.110739 -17765.442209  18813.111009   -374.456079
PG31  16248.851017   1882.089510 -21206.343507   -227.400202
PG32  15742.758880  21299.726106  -2900.312826   -616.258518
PR01    -15.694957  12820.831786  22050.776465     88.354918
PR02  14424.399136  17785.193104  11350.003909    -23.295346
PR03  21366.470142  12632.251491  -5954.399976    102.049769
PR04  16241.790346   1076.556417 -19612.597872    241.018564
PR05   2627.325406 -11242.218735 -22730.804899    133.058181
PR07 -21351.260217 -12128.972049   6860.276744     84.541002
PR08 -16127.626280   -581.910654  19804.487451     -4.962609
PR09  -4185.834043 -10558.398983  22860.940865    192.144919
PR11 -23741.004150   8900.741297   2904.356984     21.448547
PR12 -14262.764278  14277.853572 -15565.408219     41.294466
PR13   1116.165651  11481.686779 -22758.583958    -48.345793
PR14  19041.973109    604.042499 -16932.322231     26.567060
PR15  23622.987648  -9533.423287  -1187.869323     78.819563
PR16  14379.904651 -14253.994044  15503.802903     26.473263
PR17   9304.481612   7942.552860  22377.511457     95.728785
PR18  10917.613736  -9863.768089  20831.811401    146.951908
PR19   8411.158917 -21810.398538  10210.498026   -280.283741
PR20   -868.464495 -23056.843467 -10833.934605   -114.498098
PR21  -9066.946156  -8384.162393 -22330.581557   -109.168209
PR22 -11447.826576  10777.541799 -20067.973919    102.847304
PR24   2386.257256  22773.352554  11231.043828    -59.798808
PR25  -9349.886226  -8111.473374 -22306.168651    -54.060611
PR26 -16955.166060  -1559.106568  19025.391258     -6.343376
*  2024 06 14 10 45  0.00000000
PG02  14506.806294 -19946.440547   9924.567083   -417.936303
PG03  16793.702597 -12451.611580 -16467.780924    412.905059
PG04   7437.819521 -14808.557058 -20710.060457    382.931669
PG05 -25950.107685   5286.776595   2381.582308   -176.279778
PG06  -9230.725186 -12955.741902 -21186.952077    219.178628
PG07   3588.222038 -24399.667086   9731.945707    -93.430242
PG08  15259.143256  -4766.739370  21157.057399    229.131121
PG09  -4120.814544 -22133.399811 -14132.454289    234.303586
PG10  15679.559503  11056.035082  18715.997749    -42.654239
PG11 -16553.196211    801.579351 -20721.245917   -685.177216
PG12 -19271.913788  10854.047594 -14947.987321   -513.993654
PG13 -17415.659928  -5112.664440  19263.818722    657.833594
PG14 -11642.164472 -13513.830012  19780.238076    425.134316
PG15 -14567.819402   6834.956693  20656.040968    170.019063
PG16  26803.153613    227.535276   -523.031441   -264.615701
PG17 -12711.168314 -23162.977122   2046.480106    694.704058
PG18  -4082.788130  24137.259789  10056.860335   -624.749471
PG19 -16921.149117 -19319.105604  -7723.220145    496.260254
PG20 -25281.207518   1275.436760  -7733.689863    373.851650
PG21  16032.241479 -15194.657482  14383.804575    115.533814
PG22 -18532.896009 -10973.130391  15766.506102    -27.127514
PG23   2766.005057  14577.242577  22057.635325    250.026382
PG24 -14778.893231  18931.975034  10455.254311   -477.610151
PG25  -9086.093465  15337.910184 -19946.981362    497.320061
PG26  22581.553589   5978.605770 -13126.157020    137.160094
PG27  19420.782153   7240.287400  16554.492136    -28.163361
PG28   8637.932659  15317.318813 -19915.224068   -288.318110
PG29   -269.675829  21048.457059 -16173.372402   -594.271335
PG30  -5052.522411 -19519.591065  17303.150312   -374.450517
PG31  15150.145029   4023.065462 -21686.138895   -227.400045
PG32  15653.337791  21590.918261    -60.088479   -616.257488
PR01  -2302.977509  11266.299214  22769.340835     88.355950
PR02  13246.632742  16754.921508  14039.671552    -23.295633
PR03  21906.331634  12813.516928  -2797.350753    102.050429
PR04  18179.041335   2340.678194 -17714.494108    241.020094
PR05   4910.948401  -9563.338524 -23118.522780    133.058657
PR07 -21971.084203 -12375.541313   3723.904412     84.541765
PR08 -18075.537543  -1842.967454  17950.467310     -4.963029
PR09  -1692.538548 -11821.421304  22553.866351    192.146772
PR11 -23181.967789   8793.455181   6052.786163     21.447418
PR12 -15822.181876  15124.562637 -13061.301010     41.294850
PR13  -1359.215828  12711.600195 -22081.328758    -48.346131
PR14  17014.246082   1499.266310 -18919.105375     26.567090
PR15  23255.954115  -9501.407133  -4368.119152     78.819182
PR16  15914.957243 -15116.176214  12976.263521     26.473566
PR17   9106.129340  10634.834693  21312.787387     95.731818
PR18  10555.595866  -7238.177168  22064.018670    146.953694
PR19   8023.263595 -20413.908161  13020.797619   -280.285006
PR20   -904.315723 -24230.204220  -7860.135303   -114.499077
PR21  -8855.957065 -11065.030342 -21222.361442   -109.171107
PR22 -11042.582692   8242.575221 -21446.594415    102.842958
PR24   2407.423903  23986.651762   8319.619278    -59.800108
PR25  -9033.569620 -10782.568611 -21283.730565    -54.089034
PR26 -18835.479011  -2742.853901  17016.762203     -6.342632
EOF
